{
"type": "FeatureCollection",
"name": "contour",
"crs": { "type": "name", "properties": { "name": "urn:ogc:def:crs:OGC:1.3:CRS84" } },
"features": [
{"type":"Feature","properties":{"ID":0,"depth_m":-4.0},"geometry":{"type":"LineString","coordinates":[[138.601056589303653,35.114888901046889],[138.600770323905977,35.11482859146809],[138.60068595999158,35.114678591468092],[138.600708707292966,35.11462859146809],[138.601056589303653,35.11457786804327]]}},
{"type":"Feature","properties":{"ID":1,"depth_m":-2.0},"geometry":{"type":"LineString","coordinates":[[138.601056589303653,35.114309027279738],[138.600031589303654,35.114150631456972],[138.599920951926265,35.11417859146809],[138.59985423916865,35.114278591468093],[138.599886654852725,35.114378591468089],[138.600031589303654,35.114460033915357],[138.600631589303646,35.114541600618566],[138.601056589303653,35.114541060090026]]}},
{"type":"Feature","properties":{"ID":2,"depth_m":-10.0},"geometry":{"type":"LineString","coordinates":[[138.601056589303653,35.113682828928106],[138.60088158930364,35.113666469310751],[138.600710988310681,35.113453591468094]]}},
{"type":"Feature","properties":{"ID":3,"depth_m":-8.0},"geometry":{"type":"LineString","coordinates":[[138.601056589303653,35.114112819572661],[138.600781589303637,35.11406802739446],[138.599931589303651,35.113785435661264],[138.599446098736792,35.113428591468093],[138.59933667216734,35.113253591468094]]}},
{"type":"Feature","properties":{"ID":4,"depth_m":-2.0},"geometry":{"type":"LineString","coordinates":[[138.59547206060239,35.113178591468092],[138.595231589303637,35.1131485808204],[138.595141334147257,35.113228591468093],[138.595138646494661,35.11332859146809],[138.595281589303653,35.113455262412323],[138.595581589303634,35.113548476724652],[138.596131589303639,35.113623008408346],[138.596231589303642,35.113599265919646],[138.596283578871635,35.113528591468089],[138.596265527819128,35.113378591468091],[138.596181589303654,35.113312279029408],[138.59547206060239,35.113178591468092]]}},
{"type":"Feature","properties":{"ID":5,"depth_m":-6.0},"geometry":{"type":"LineString","coordinates":[[138.601056589303653,35.114228825940131],[138.599981589303638,35.114066803480121],[138.59978158930366,35.114127653151527],[138.59948158930365,35.113838405202422],[138.599081589303637,35.113637596347473],[138.598631589303636,35.113560611484182],[138.598181589303636,35.113564142269716],[138.59703158930364,35.113326329849158],[138.596431589303648,35.113299648201348],[138.596051405099274,35.113178591468092],[138.595756190281691,35.113028591468094],[138.595706521379185,35.112953591468091]]}},
{"type":"Feature","properties":{"ID":6,"depth_m":-4.0},"geometry":{"type":"LineString","coordinates":[[138.601056589303653,35.114274187887418],[138.599981589303638,35.114113257960284],[138.599815024977772,35.114228591468091],[138.599826908810968,35.114428591468091],[138.59978158930366,35.114465980607058],[138.599631589303641,35.114448879247789],[138.599531589303638,35.114405880294214],[138.599489132673085,35.114328591468094],[138.599562125247331,35.11417859146809],[138.599530287674185,35.114028591468092],[138.599331589303659,35.11389917734769],[138.598481589303645,35.113712804929605],[138.598331589303655,35.113751812282004],[138.598181589303636,35.113873884409664],[138.598081589303661,35.11387832344937],[138.597981589303657,35.113838134363704],[138.597831589303638,35.113656313023533],[138.596881589303649,35.113482612795842],[138.596731589303658,35.113499280050938],[138.596531589303652,35.113691564241854],[138.596306006821379,35.113728591468096],[138.596259346695405,35.113678591468094],[138.596323935698422,35.113578591468091],[138.596335878070789,35.113428591468093],[138.596231589303642,35.1132902641166],[138.595281589303653,35.11309139004193],[138.595099502800338,35.113178591468092],[138.595031589303659,35.113355110063075],[138.594825804694608,35.11332859146809],[138.594719080070234,35.113278591468095],[138.5947391408844,35.112953591468091]]}},
{"type":"Feature","properties":{"ID":7,"depth_m":-2.0},"geometry":{"type":"LineString","coordinates":[[138.601056589303653,35.115044180461311],[138.600781589303637,35.115002964986743],[138.600281589303648,35.114752079908598],[138.599831589303648,35.114791886907717],[138.599358200157667,35.114678591468092],[138.599131589303653,35.114514388549864],[138.599093107832573,35.114328591468094],[138.599431589303634,35.114259585177876],[138.599505769349548,35.11417859146809],[138.59950972123454,35.114078591468093],[138.599408767724242,35.11397859146809],[138.599081589303637,35.113889604572343],[138.598531589303661,35.113776247741846],[138.598381589303642,35.113792753232097],[138.598264319649672,35.113928591468095],[138.598304880382472,35.114128591468095],[138.598031589303645,35.114214942819032],[138.597766541411232,35.114078591468093],[138.597888822505183,35.113928591468095],[138.597904121507753,35.113828591468092],[138.597850230927293,35.113728591468096],[138.597731589303635,35.113671350699391],[138.596831589303662,35.113530844776548],[138.596674549365076,35.113628591468093],[138.596658198965997,35.113728591468096],[138.596770711160246,35.113878591468094],[138.596681589303643,35.113930966854369],[138.59593158930366,35.113781311154824],[138.59548158930366,35.113604672366918],[138.595131589303634,35.11360497467556],[138.594370041019602,35.113428591468093],[138.594243026007291,35.113278591468095],[138.594631589303646,35.113212593064205],[138.594679844703592,35.11312859146809],[138.594671681844233,35.112953591468091]]}},
{"type":"Feature","properties":{"ID":8,"depth_m":-2.0},"geometry":{"type":"LineString","coordinates":[[138.593526420876685,35.112953591468091],[138.593631589303641,35.113111444728446],[138.593768887638049,35.113178591468092],[138.593531589303637,35.113250563214869],[138.593129307219897,35.113228591468093],[138.592823135366473,35.11312859146809],[138.592763657451115,35.112953591468091]]}}
]
}
